{"type": "FeatureCollection", "features": [ {"type": "Feature", "properties": {"norad_id": 66849, "name": "STARLINK-36102", "group": "last-30-days", "lat": 28.48473899559837, "lon": -174.64081732616205, "alt_km": 410.84380059052637, "timestamp": "2025-12-26T04:40:04.512014+00:00", "meta": {"OBJECT_NAME": "STARLINK-36102", "OBJECT_ID": "2025-281B", "EPOCH": "2025-12-25T22:00:01.999584", "MEAN_MOTION": 15.50776674, "ECCENTRICITY": 0.00012253, "INCLINATION": 43.0006, "RA_OF_ASC_NODE": 42.596, "ARG_OF_PERICENTER": 242.2606, "MEAN_ANOMALY": 140.6193, "EPHEMERIS_TYPE": 0, "CLASSIFICATION_TYPE": "U", "NORAD_CAT_ID": 66849, "ELEMENT_SET_NO": 999, "REV_AT_EPOCH": 350, "BSTAR": -0.0070170828, "MEAN_MOTION_DOT": -0.00394687, "MEAN_MOTION_DDOT": 0}, "tle": {"line1": "1 66849U 25281B   25359.91668981 -.00394687  00000+0 -70171-2 0  9999", "line2": "2 66849  43.0006  42.5960 0001225 242.2606 140.6193 15.50776674  3506"}}, "geometry": {"type": "Point", "coordinates": [-174.64081732616205, 28.48473899559837]}}, {"type": "Feature", "properties": {"norad_id": 66850, "name": "STARLINK-36105", "group": "last-30-days", "lat": 27.411621417045584, "lon": -172.84974523198088, "alt_km": 410.9238089314631, "timestamp": "2025-12-26T04:40:04.512024+00:00", "meta": {"OBJECT_NAME": "STARLINK-36105", "OBJECT_ID": "2025-281C", "EPOCH": "2025-12-25T22:00:01.999584", "MEAN_MOTION": 15.50776062, "ECCENTRICITY": 0.00010929, "INCLINATION": 43.0007, "RA_OF_ASC_NODE": 42.5915, "ARG_OF_PERICENTER": 239.7105, "MEAN_ANOMALY": 145.0803, "EPHEMERIS_TYPE": 0, "CLASSIFICATION_TYPE": "U", "NORAD_CAT_ID": 66850, "ELEMENT_SET_NO": 999, "REV_AT_EPOCH": 350, "BSTAR": -0.0069209341, "MEAN_MOTION_DOT": -0.0038952, "MEAN_MOTION_DDOT": 0}, "tle": {"line1": "1 66850U 25281C   25359.91668981 -.00389520  00000+0 -69209-2 0  9991", "line2": "2 66850  43.0007  42.5915 0001092 239.7105 145.0803 15.50776062  3504"}}, "geometry": {"type": "Point", "coordinates": [-172.84974523198088, 27.411621417045584]}}, {"type": "Feature", "properties": {"norad_id": 66851, "name": "STARLINK-36094", "group": "last-30-days", "lat": 26.312256318413553, "lon": -171.08860817622644, "alt_km": 411.22073600319527, "timestamp": "2025-12-26T04:40:04.512033+00:00", "meta": {"OBJECT_NAME": "STARLINK-36094", "OBJECT_ID": "2025-281D", "EPOCH": "2025-12-25T22:00:01.999584", "MEAN_MOTION": 15.50777113, "ECCENTRICITY": 0.0001016, "INCLINATION": 43.0006, "RA_OF_ASC_NODE": 42.5864, "ARG_OF_PERICENTER": 250.881, "MEAN_ANOMALY": 135.8305, "EPHEMERIS_TYPE": 0, "CLASSIFICATION_TYPE": "U", "NORAD_CAT_ID": 66851, "ELEMENT_SET_NO": 999, "REV_AT_EPOCH": 350, "BSTAR": -0.0071618989, "MEAN_MOTION_DOT": -0.00402426, "MEAN_MOTION_DDOT": 0}, "tle": {"line1": "1 66851U 25281D   25359.91668981 -.00402426  00000+0 -71619-2 0  9991", "line2": "2 66851  43.0006  42.5864 0001016 250.8810 135.8305 15.50777113  3502"}}, "geometry": {"type": "Point", "coordinates": [-171.08860817622644, 26.312256318413553]}}, {"type": "Feature", "properties": {"norad_id": 66852, "name": "STARLINK-35992", "group": "last-30-days", "lat": 25.207243227088842, "lon": -169.38362401450416, "alt_km": 411.3987204929099, "timestamp": "2025-12-26T04:40:04.512047+00:00", "meta": {"OBJECT_NAME": "STARLINK-35992", "OBJECT_ID": "2025-281E", "EPOCH": "2025-12-25T22:00:01.999584", "MEAN_MOTION": 15.50732975, "ECCENTRICITY": 5.059e-05, "INCLINATION": 43.0006, "RA_OF_ASC_NODE": 42.5821, "ARG_OF_PERICENTER": 258.2961, "MEAN_ANOMALY": 130.3414, "EPHEMERIS_TYPE": 0, "CLASSIFICATION_TYPE": "U", "NORAD_CAT_ID": 66852, "ELEMENT_SET_NO": 999, "REV_AT_EPOCH": 350, "BSTAR": -0.0068336535, "MEAN_MOTION_DOT": -0.00384243, "MEAN_MOTION_DDOT": 0}, "tle": {"line1": "1 66852U 25281E   25359.91668981 -.00384243  00000+0 -68337-2 0  9991", "line2": "2 66852  43.0006  42.5821 0000505 258.2961 130.3414 15.50732975  3505"}}, "geometry": {"type": "Point", "coordinates": [-169.38362401450416, 25.207243227088842]}}, {"type": "Feature", "properties": {"norad_id": 66853, "name": "STARLINK-35986", "group": "last-30-days", "lat": 24.07040871728647, "lon": -167.6919622222926, "alt_km": 411.57965519207846, "timestamp": "2025-12-26T04:40:04.512057+00:00", "meta": {"OBJECT_NAME": "STARLINK-35986", "OBJECT_ID": "2025-281F", "EPOCH": "2025-12-25T22:00:01.999584", "MEAN_MOTION": 15.5073458, "ECCENTRICITY": 4.762e-05, "INCLINATION": 43.0007, "RA_OF_ASC_NODE": 42.5771, "ARG_OF_PERICENTER": 262.1986, "MEAN_ANOMALY": 128.3514, "EPHEMERIS_TYPE": 0, "CLASSIFICATION_TYPE": "U", "NORAD_CAT_ID": 66853, "ELEMENT_SET_NO": 999, "REV_AT_EPOCH": 350, "BSTAR": -0.0068592267, "MEAN_MOTION_DOT": -0.00385632, "MEAN_MOTION_DDOT": 0}, "tle": {"line1": "1 66853U 25281F   25359.91668981 -.00385632  00000+0 -68592-2 0  9998", "line2": "2 66853  43.0007  42.5771 0000476 262.1986 128.3514 15.50734580  3501"}}, "geometry": {"type": "Point", "coordinates": [-167.6919622222926, 24.07040871728647]}}, {"type": "Feature", "properties": {"norad_id": 66854, "name": "STARLINK-36087", "group": "last-30-days", "lat": 22.91273237641239, "lon": -166.02737444344396, "alt_km": 411.7783457385867, "timestamp": "2025-12-26T04:40:04.512069+00:00", "meta": {"OBJECT_NAME": "STARLINK-36087", "OBJECT_ID": "2025-281G", "EPOCH": "2025-12-25T22:00:01.999584", "MEAN_MOTION": 15.5073723, "ECCENTRICITY": 5.336e-05, "INCLINATION": 43.0006, "RA_OF_ASC_NODE": 42.5718, "ARG_OF_PERICENTER": 263.0049, "MEAN_ANOMALY": 129.4621, "EPHEMERIS_TYPE": 0, "CLASSIFICATION_TYPE": "U", "NORAD_CAT_ID": 66854, "ELEMENT_SET_NO": 999, "REV_AT_EPOCH": 350, "BSTAR": -0.0069214974, "MEAN_MOTION_DOT": -0.00389005, "MEAN_MOTION_DDOT": 0}, "tle": {"line1": "1 66854U 25281G   25359.91668981 -.00389005  00000+0 -69215-2 0  9990", "line2": "2 66854  43.0006  42.5718 0000533 263.0049 129.4621 15.50737230  3502"}}, "geometry": {"type": "Point", "coordinates": [-166.02737444344396, 22.91273237641239]}}, {"type": "Feature", "properties": {"norad_id": 66855, "name": "STARLINK-36090", "group": "last-30-days", "lat": 21.736794588553177, "lon": -164.3889559777505, "alt_km": 412.05753075758366, "timestamp": "2025-12-26T04:40:04.512079+00:00", "meta": {"OBJECT_NAME": "STARLINK-36090", "OBJECT_ID": "2025-281H", "EPOCH": "2025-12-25T22:00:01.999584", "MEAN_MOTION": 15.50744985, "ECCENTRICITY": 6.64e-05, "INCLINATION": 43.0006, "RA_OF_ASC_NODE": 42.5672, "ARG_OF_PERICENTER": 273.7281, "MEAN_ANOMALY": 120.6541, "EPHEMERIS_TYPE": 0, "CLASSIFICATION_TYPE": "U", "NORAD_CAT_ID": 66855, "ELEMENT_SET_NO": 999, "REV_AT_EPOCH": 338, "BSTAR": -0.0070634804, "MEAN_MOTION_DOT": -0.00396709, "MEAN_MOTION_DDOT": 0}, "tle": {"line1": "1 66855U 25281H   25359.91668981 -.00396709  00000+0 -70635-2 0  9998", "line2": "2 66855  43.0006  42.5672 0000664 273.7281 120.6541 15.50744985  3388"}}, "geometry": {"type": "Point", "coordinates": [-164.3889559777505, 21.736794588553177]}}, {"type": "Feature", "properties": {"norad_id": 66856, "name": "STARLINK-36072", "group": "last-30-days", "lat": 20.535044372405864, "lon": -162.76513066496574, "alt_km": 411.9321708877733, "timestamp": "2025-12-26T04:40:04.512089+00:00", "meta": {"OBJECT_NAME": "STARLINK-36072", "OBJECT_ID": "2025-281J", "EPOCH": "2025-12-25T22:00:01.999584", "MEAN_MOTION": 15.50774175, "ECCENTRICITY": 0.00010898, "INCLINATION": 43.0004, "RA_OF_ASC_NODE": 42.5619, "ARG_OF_PERICENTER": 241.2244, "MEAN_ANOMALY": 155.0734, "EPHEMERIS_TYPE": 0, "CLASSIFICATION_TYPE": "U", "NORAD_CAT_ID": 66856, "ELEMENT_SET_NO": 999, "REV_AT_EPOCH": 350, "BSTAR": -0.0072168175, "MEAN_MOTION_DOT": -0.00405323, "MEAN_MOTION_DDOT": 0}, "tle": {"line1": "1 66856U 25281J   25359.91668981 -.00405323  00000+0 -72168-2 0  9995", "line2": "2 66856  43.0004  42.5619 0001089 241.2244 155.0734 15.50774175  3503"}}, "geometry": {"type": "Point", "coordinates": [-162.76513066496574, 20.535044372405864]}}, {"type": "Feature", "properties": {"norad_id": 66857, "name": "STARLINK-36083", "group": "last-30-days", "lat": 19.33105937609163, "lon": -161.18277897212457, "alt_km": 412.07307104731444, "timestamp": "2025-12-26T04:40:04.512100+00:00", "meta": {"OBJECT_NAME": "STARLINK-36083", "OBJECT_ID": "2025-281K", "EPOCH": "2025-12-25T22:00:01.999584", "MEAN_MOTION": 15.5077121, "ECCENTRICITY": 0.00012311, "INCLINATION": 43.0004, "RA_OF_ASC_NODE": 42.557, "ARG_OF_PERICENTER": 238.7821, "MEAN_ANOMALY": 159.4361, "EPHEMERIS_TYPE": 0, "CLASSIFICATION_TYPE": "U", "NORAD_CAT_ID": 66857, "ELEMENT_SET_NO": 999, "REV_AT_EPOCH": 350, "BSTAR": -0.0072194655, "MEAN_MOTION_DOT": -0.00405432, "MEAN_MOTION_DDOT": 0}, "tle": {"line1": "1 66857U 25281K   25359.91668981 -.00405432  00000+0 -72195-2 0  9997", "line2": "2 66857  43.0004  42.5570 0001231 238.7821 159.4361 15.50771210  3502"}}, "geometry": {"type": "Point", "coordinates": [-161.18277897212457, 19.33105937609163]}}, {"type": "Feature", "properties": {"norad_id": 66858, "name": "STARLINK-35118", "group": "last-30-days", "lat": 18.112076043705216, "lon": -159.6221408400831, "alt_km": 412.2034146055248, "timestamp": "2025-12-26T04:40:04.512111+00:00", "meta": {"OBJECT_NAME": "STARLINK-35118", "OBJECT_ID": "2025-281L", "EPOCH": "2025-12-25T22:00:01.999584", "MEAN_MOTION": 15.50779246, "ECCENTRICITY": 0.00013497, "INCLINATION": 43.0004, "RA_OF_ASC_NODE": 42.5519, "ARG_OF_PERICENTER": 236.5233, "MEAN_ANOMALY": 163.6118, "EPHEMERIS_TYPE": 0, "CLASSIFICATION_TYPE": "U", "NORAD_CAT_ID": 66858, "ELEMENT_SET_NO": 999, "REV_AT_EPOCH": 329, "BSTAR": -0.0075574225, "MEAN_MOTION_DOT": -0.00423558, "MEAN_MOTION_DDOT": 0}, "tle": {"line1": "1 66858U 25281L   25359.91668981 -.00423558  00000+0 -75574-2 0  9991", "line2": "2 66858  43.0004  42.5519 0001349 236.5233 163.6118 15.50779246  3299"}}, "geometry": {"type": "Point", "coordinates": [-159.6221408400831, 18.112076043705216]}}]}